{"type": "FeatureCollection", "features": [ {"type": "Feature", "properties": {"norad_id": 29820, "name": "FENGYUN 1C DEB", "group": "fengyun-1c-debris", "lat": -66.1862534597945, "lon": 26.176964323978762, "alt_km": 890.1710571272706, "timestamp": "2025-12-24T20:42:21.298321+00:00", "meta": {"OBJECT_NAME": "FENGYUN 1C DEB", "OBJECT_ID": "1999-025DN", "EPOCH": "2025-12-24T07:24:47.591424", "MEAN_MOTION": 14.02628881, "ECCENTRICITY": 0.00724669, "INCLINATION": 98.833, "RA_OF_ASC_NODE": 5.0102, "ARG_OF_PERICENTER": 205.2637, "MEAN_ANOMALY": 170.9921, "EPHEMERIS_TYPE": 0, "CLASSIFICATION_TYPE": "U", "NORAD_CAT_ID": 29820, "ELEMENT_SET_NO": 999, "REV_AT_EPOCH": 96722, "BSTAR": 0.00066353065, "MEAN_MOTION_DOT": 1.004e-05, "MEAN_MOTION_DDOT": 0}, "tle": {"line1": "1 29820U 99025DN  25358.30888416  .00001004  00000+0  66353-3 0  9997", "line2": "2 29820  98.8330   5.0102 0072466 205.2637 170.9921 14.02628881967227"}}, "geometry": {"type": "Point", "coordinates": [26.176964323978762, -66.1862534597945]}}, {"type": "Feature", "properties": {"norad_id": 29821, "name": "FENGYUN 1C DEB", "group": "fengyun-1c-debris", "lat": -14.09563183645481, "lon": 55.98886857781335, "alt_km": 900.1087256737765, "timestamp": "2025-12-24T20:42:21.298331+00:00", "meta": {"OBJECT_NAME": "FENGYUN 1C DEB", "OBJECT_ID": "1999-025DP", "EPOCH": "2025-12-24T02:19:05.509056", "MEAN_MOTION": 14.11115314, "ECCENTRICITY": 0.03762076, "INCLINATION": 98.8719, "RA_OF_ASC_NODE": 52.9823, "ARG_OF_PERICENTER": 88.596, "MEAN_ANOMALY": 331.5963, "EPHEMERIS_TYPE": 0, "CLASSIFICATION_TYPE": "U", "NORAD_CAT_ID": 29821, "ELEMENT_SET_NO": 999, "REV_AT_EPOCH": 96671, "BSTAR": 0.00056212845, "MEAN_MOTION_DOT": 1.925e-05, "MEAN_MOTION_DDOT": 0}, "tle": {"line1": "1 29821U 99025DP  25358.09659154  .00001925  00000+0  56213-3 0  9995", "line2": "2 29821  98.8719  52.9823 0376207  88.5960 331.5963 14.11115314966717"}}, "geometry": {"type": "Point", "coordinates": [55.98886857781335, -14.09563183645481]}}, {"type": "Feature", "properties": {"norad_id": 29827, "name": "FENGYUN 1C DEB", "group": "fengyun-1c-debris", "lat": 72.87746448376072, "lon": -39.67739143996311, "alt_km": 827.6979225030109, "timestamp": "2025-12-24T20:42:21.298341+00:00", "meta": {"OBJECT_NAME": "FENGYUN 1C DEB", "OBJECT_ID": "1999-025DV", "EPOCH": "2025-12-23T11:17:04.670016", "MEAN_MOTION": 14.21702537, "ECCENTRICITY": 0.00245989, "INCLINATION": 98.6032, "RA_OF_ASC_NODE": 348.3985, "ARG_OF_PERICENTER": 290.481, "MEAN_ANOMALY": 221.3037, "EPHEMERIS_TYPE": 0, "CLASSIFICATION_TYPE": "U", "NORAD_CAT_ID": 29827, "ELEMENT_SET_NO": 999, "REV_AT_EPOCH": 98015, "BSTAR": 0.00028981316, "MEAN_MOTION_DOT": 5.95e-06, "MEAN_MOTION_DDOT": 0}, "tle": {"line1": "1 29827U 99025DV  25357.47019294  .00000595  00000+0  28981-3 0  9990", "line2": "2 29827  98.6032 348.3985 0024598 290.4810 221.3037 14.21702537980153"}}, "geometry": {"type": "Point", "coordinates": [-39.67739143996311, 72.87746448376072]}}, {"type": "Feature", "properties": {"norad_id": 29828, "name": "FENGYUN 1C DEB", "group": "fengyun-1c-debris", "lat": -78.76693838758385, "lon": 172.98741291743272, "alt_km": 907.1023419577696, "timestamp": "2025-12-24T20:42:21.298351+00:00", "meta": {"OBJECT_NAME": "FENGYUN 1C DEB", "OBJECT_ID": "1999-025DW", "EPOCH": "2025-12-24T02:40:38.413344", "MEAN_MOTION": 14.08194429, "ECCENTRICITY": 0.00614238, "INCLINATION": 98.7691, "RA_OF_ASC_NODE": 43.2612, "ARG_OF_PERICENTER": 124.5473, "MEAN_ANOMALY": 291.901, "EPHEMERIS_TYPE": 0, "CLASSIFICATION_TYPE": "U", "NORAD_CAT_ID": 29828, "ELEMENT_SET_NO": 999, "REV_AT_EPOCH": 96897, "BSTAR": 0.00066703627, "MEAN_MOTION_DOT": 1.116e-05, "MEAN_MOTION_DDOT": 0}, "tle": {"line1": "1 29828U 99025DW  25358.11155571  .00001116  00000+0  66704-3 0  9997", "line2": "2 29828  98.7691  43.2612 0061423 124.5473 291.9010 14.08194429968974"}}, "geometry": {"type": "Point", "coordinates": [172.98741291743272, -78.76693838758385]}}, {"type": "Feature", "properties": {"norad_id": 29832, "name": "FENGYUN 1C DEB", "group": "fengyun-1c-debris", "lat": -61.48825155364686, "lon": -85.61054359042399, "alt_km": 575.3850663917738, "timestamp": "2025-12-24T20:42:21.298361+00:00", "meta": {"OBJECT_NAME": "FENGYUN 1C DEB", "OBJECT_ID": "1999-025EA", "EPOCH": "2025-12-24T06:23:44.615904", "MEAN_MOTION": 14.56578629, "ECCENTRICITY": 0.01922804, "INCLINATION": 98.8195, "RA_OF_ASC_NODE": 110.366, "ARG_OF_PERICENTER": 247.7738, "MEAN_ANOMALY": 110.2963, "EPHEMERIS_TYPE": 0, "CLASSIFICATION_TYPE": "U", "NORAD_CAT_ID": 29832, "ELEMENT_SET_NO": 999, "REV_AT_EPOCH": 423, "BSTAR": 0.00019781521, "MEAN_MOTION_DOT": 1.067e-05, "MEAN_MOTION_DDOT": 0}, "tle": {"line1": "1 29832U 99025EA  25358.26648861  .00001067  00000+0  19782-3 0  9996", "line2": "2 29832  98.8195 110.3660 0192280 247.7738 110.2963 14.56578629  4237"}}, "geometry": {"type": "Point", "coordinates": [-85.61054359042399, -61.48825155364686]}}, {"type": "Feature", "properties": {"norad_id": 29833, "name": "FENGYUN 1C DEB", "group": "fengyun-1c-debris", "lat": -38.07457122038706, "lon": -9.80989752475799, "alt_km": 614.2732739130734, "timestamp": "2025-12-24T20:42:21.298372+00:00", "meta": {"OBJECT_NAME": "FENGYUN 1C DEB", "OBJECT_ID": "1999-025EB", "EPOCH": "2025-12-23T09:27:17.229888", "MEAN_MOTION": 14.91326015, "ECCENTRICITY": 0.00886863, "INCLINATION": 99.0782, "RA_OF_ASC_NODE": 341.3059, "ARG_OF_PERICENTER": 222.4084, "MEAN_ANOMALY": 137.0255, "EPHEMERIS_TYPE": 0, "CLASSIFICATION_TYPE": "U", "NORAD_CAT_ID": 29833, "ELEMENT_SET_NO": 999, "REV_AT_EPOCH": 730, "BSTAR": 0.0010072798, "MEAN_MOTION_DOT": 0.00010759, "MEAN_MOTION_DDOT": 0}, "tle": {"line1": "1 29833U 99025EB  25357.39394942  .00010759  00000+0  10073-2 0  9999", "line2": "2 29833  99.0782 341.3059 0088686 222.4084 137.0255 14.91326015  7300"}}, "geometry": {"type": "Point", "coordinates": [-9.80989752475799, -38.07457122038706]}}, {"type": "Feature", "properties": {"norad_id": 29835, "name": "FENGYUN 1C DEB", "group": "fengyun-1c-debris", "lat": -39.51702419824139, "lon": -59.55491092440973, "alt_km": 846.1206445581656, "timestamp": "2025-12-24T20:42:21.298382+00:00", "meta": {"OBJECT_NAME": "FENGYUN 1C DEB", "OBJECT_ID": "1999-025ED", "EPOCH": "2025-12-24T06:39:40.445280", "MEAN_MOTION": 14.43379065, "ECCENTRICITY": 0.01673475, "INCLINATION": 99.0262, "RA_OF_ASC_NODE": 127.3589, "ARG_OF_PERICENTER": 3.0715, "MEAN_ANOMALY": 59.1209, "EPHEMERIS_TYPE": 0, "CLASSIFICATION_TYPE": "U", "NORAD_CAT_ID": 29835, "ELEMENT_SET_NO": 999, "REV_AT_EPOCH": 99661, "BSTAR": 5.0954477e-05, "MEAN_MOTION_DOT": 1.45e-06, "MEAN_MOTION_DDOT": 0}, "tle": {"line1": "1 29835U 99025ED  25358.27755145  .00000145  00000+0  50954-4 0  9997", "line2": "2 29835  99.0262 127.3589 0167347   3.0715  59.1209 14.43379065996615"}}, "geometry": {"type": "Point", "coordinates": [-59.55491092440973, -39.51702419824139]}}, {"type": "Feature", "properties": {"norad_id": 29836, "name": "FENGYUN 1C DEB", "group": "fengyun-1c-debris", "lat": -39.91937020784568, "lon": -92.37340071248315, "alt_km": 654.9183785273381, "timestamp": "2025-12-24T20:42:21.298392+00:00", "meta": {"OBJECT_NAME": "FENGYUN 1C DEB", "OBJECT_ID": "1999-025EE", "EPOCH": "2025-12-23T05:58:42.481920", "MEAN_MOTION": 14.54166039, "ECCENTRICITY": 0.0154964, "INCLINATION": 98.1877, "RA_OF_ASC_NODE": 92.9664, "ARG_OF_PERICENTER": 169.9585, "MEAN_ANOMALY": 246.4461, "EPHEMERIS_TYPE": 0, "CLASSIFICATION_TYPE": "U", "NORAD_CAT_ID": 29836, "ELEMENT_SET_NO": 999, "REV_AT_EPOCH": 63708, "BSTAR": 0.00063888528, "MEAN_MOTION_DOT": 3.121e-05, "MEAN_MOTION_DDOT": 0}, "tle": {"line1": "1 29836U 99025EE  25357.24910280  .00003121  00000+0  63889-3 0  9994", "line2": "2 29836  98.1877  92.9664 0154964 169.9585 246.4461 14.54166039637088"}}, "geometry": {"type": "Point", "coordinates": [-92.37340071248315, -39.91937020784568]}}, {"type": "Feature", "properties": {"norad_id": 29841, "name": "FENGYUN 1C DEB", "group": "fengyun-1c-debris", "lat": -76.72523583131108, "lon": 85.35244894729644, "alt_km": 630.0757891579351, "timestamp": "2025-12-24T20:42:21.298402+00:00", "meta": {"OBJECT_NAME": "FENGYUN 1C DEB", "OBJECT_ID": "1999-025EK", "EPOCH": "2025-12-23T15:51:25.178112", "MEAN_MOTION": 14.46522403, "ECCENTRICITY": 0.01997912, "INCLINATION": 98.8203, "RA_OF_ASC_NODE": 305.2593, "ARG_OF_PERICENTER": 300.8439, "MEAN_ANOMALY": 184.5494, "EPHEMERIS_TYPE": 0, "CLASSIFICATION_TYPE": "U", "NORAD_CAT_ID": 29841, "ELEMENT_SET_NO": 999, "REV_AT_EPOCH": 99481, "BSTAR": 0.00046901021, "MEAN_MOTION_DOT": 2.105e-05, "MEAN_MOTION_DDOT": 0}, "tle": {"line1": "1 29841U 99025EK  25357.66070808  .00002105  00000+0  46901-3 0  9996", "line2": "2 29841  98.8203 305.2593 0199791 300.8439 184.5494 14.46522403994813"}}, "geometry": {"type": "Point", "coordinates": [85.35244894729644, -76.72523583131108]}}, {"type": "Feature", "properties": {"norad_id": 29842, "name": "FENGYUN 1C DEB", "group": "fengyun-1c-debris", "lat": -13.246316880978018, "lon": -95.22328729612275, "alt_km": 663.2323733395488, "timestamp": "2025-12-24T20:42:21.298411+00:00", "meta": {"OBJECT_NAME": "FENGYUN 1C DEB", "OBJECT_ID": "1999-025EL", "EPOCH": "2025-12-24T05:17:01.984704", "MEAN_MOTION": 14.60397142, "ECCENTRICITY": 0.01089755, "INCLINATION": 98.5683, "RA_OF_ASC_NODE": 86.1463, "ARG_OF_PERICENTER": 130.1841, "MEAN_ANOMALY": 285.5972, "EPHEMERIS_TYPE": 0, "CLASSIFICATION_TYPE": "U", "NORAD_CAT_ID": 29842, "ELEMENT_SET_NO": 999, "REV_AT_EPOCH": 99521, "BSTAR": 0.001321182, "MEAN_MOTION_DOT": 6.904e-05, "MEAN_MOTION_DDOT": 0}, "tle": {"line1": "1 29842U 99025EL  25358.22016186  .00006904  00000+0  13212-2 0  9998", "line2": "2 29842  98.5683  86.1463 0108975 130.1841 285.5972 14.60397142995213"}}, "geometry": {"type": "Point", "coordinates": [-95.22328729612275, -13.246316880978018]}}]}